TWILIGHT V              
1 67382U 26004V   26035.82247207  .00003362  00000+0  37192-3 0  9994
2 67382  97.8006  36.5918 0004389 177.9713 182.1522 14.88026934  3604
TWILIGHT W              
1 67383U 26004W   26035.82691207  .00002866  00000+0  32003-3 0  9992
2 67383  97.7982  36.5810 0004672 194.7910 165.3170 14.87757579  3606
TWILIGHT X              
1 67384U 26004X   26035.82010881 -.00000237  00000+0 -19797-4 0  9994
2 67384  97.7981  36.5896 0003742 177.1608 182.9630 14.88233986  3604
TWILIGHT Y              
1 67385U 26004Y   26035.81863655  .00007748  00000+0  84105-3 0  9995
2 67385  97.7993  36.5938 0003875 170.2650 189.8643 14.88403653  3603
TWILIGHT Z              
1 67386U 26004Z   26035.81732024  .00004926  00000+0  53780-3 0  9991
2 67386  97.7973  36.5926 0002653 167.5460 192.5822 14.88353562  3603
TWILIGHT AA             
1 67387U 26004AA  26035.81294755  .00007525  00000+0  81088-3 0  9996
2 67387  97.8022  36.6062 0003934 141.9729 218.1766 14.88709520  3600
TWILIGHT AB             
1 67388U 26004AB  26035.81104967  .00007294  00000+0  78431-3 0  9993
2 67388  97.8011  36.6069 0003498 132.0185 228.1330 14.88808707  3603
TWILIGHT AC             
1 67389U 26004AC  26035.82281692  .00006644  00000+0  33807-3 0  9992
2 67389  97.4569  36.8002 0005262  84.1102 276.0731 15.17143746  3676
CONNECTA IOT-16         
1 67390U 26004AD  26035.82272044  .00006906  00000+0  35277-3 0  9999
2 67390  97.4569  36.8018 0005458  81.8712 278.3140 15.16992516  3678
FLAMINGO-1              
1 67391U 26004AE  26035.75357633  .00006341  00000+0  32172-3 0  9994
2 67391  97.4520  36.7246 0006713  75.0592 285.1384 15.17256826  3667
TWILIGHT AF             
1 67392U 26004AF  26035.81283270  .00050317  00000+0  24559-2 0  9998
2 67392  97.4414  36.7476 0007508  75.5929 284.6138 15.18078405  3675
TWILIGHT AG             
1 67393U 26004AG  26035.28476219  .00007388  00000+0  36657-3 0  9990
2 67393  97.4562  36.3047 0007526  83.2673 276.9418 15.17976612  3594
