CCSDS_OMM_VERS = 2.0
CREATION_DATE  = 
ORIGINATOR     = 

OBJECT_NAME    = TWILIGHT V
OBJECT_ID      = 2026-004V
CENTER_NAME    = EARTH
REF_FRAME      = TEME
TIME_SYSTEM    = UTC
MEAN_ELEMENT_THEORY = SGP/SGP4

EPOCH          = 2026-02-04T19:44:21.586848
MEAN_MOTION    = 14.88026934
ECCENTRICITY   = .0004389
INCLINATION    = 97.8006
RA_OF_ASC_NODE = 36.5918
ARG_OF_PERICENTER = 177.9713
MEAN_ANOMALY   = 182.1522

EPHEMERIS_TYPE = 0
CLASSIFICATION_TYPE = U
NORAD_CAT_ID   = 67382
ELEMENT_SET_NO = 999
REV_AT_EPOCH   = 360
BSTAR          = .37192E-3
MEAN_MOTION_DOT = .3362E-4
MEAN_MOTION_DDOT = 0

CCSDS_OMM_VERS = 2.0
CREATION_DATE  = 
ORIGINATOR     = 

OBJECT_NAME    = TWILIGHT W
OBJECT_ID      = 2026-004W
CENTER_NAME    = EARTH
REF_FRAME      = TEME
TIME_SYSTEM    = UTC
MEAN_ELEMENT_THEORY = SGP/SGP4

EPOCH          = 2026-02-04T19:50:45.202848
MEAN_MOTION    = 14.87757579
ECCENTRICITY   = .0004672
INCLINATION    = 97.7982
RA_OF_ASC_NODE = 36.5810
ARG_OF_PERICENTER = 194.7910
MEAN_ANOMALY   = 165.3170

EPHEMERIS_TYPE = 0
CLASSIFICATION_TYPE = U
NORAD_CAT_ID   = 67383
ELEMENT_SET_NO = 999
REV_AT_EPOCH   = 360
BSTAR          = .32003E-3
MEAN_MOTION_DOT = .2866E-4
MEAN_MOTION_DDOT = 0

CCSDS_OMM_VERS = 2.0
CREATION_DATE  = 
ORIGINATOR     = 

OBJECT_NAME    = TWILIGHT X
OBJECT_ID      = 2026-004X
CENTER_NAME    = EARTH
REF_FRAME      = TEME
TIME_SYSTEM    = UTC
MEAN_ELEMENT_THEORY = SGP/SGP4

EPOCH          = 2026-02-04T19:40:57.401184
MEAN_MOTION    = 14.88233986
ECCENTRICITY   = .0003742
INCLINATION    = 97.7981
RA_OF_ASC_NODE = 36.5896
ARG_OF_PERICENTER = 177.1608
MEAN_ANOMALY   = 182.9630

EPHEMERIS_TYPE = 0
CLASSIFICATION_TYPE = U
NORAD_CAT_ID   = 67384
ELEMENT_SET_NO = 999
REV_AT_EPOCH   = 360
BSTAR          = -.19797E-4
MEAN_MOTION_DOT = -.237E-5
MEAN_MOTION_DDOT = 0

CCSDS_OMM_VERS = 2.0
CREATION_DATE  = 
ORIGINATOR     = 

OBJECT_NAME    = TWILIGHT Y
OBJECT_ID      = 2026-004Y
CENTER_NAME    = EARTH
REF_FRAME      = TEME
TIME_SYSTEM    = UTC
MEAN_ELEMENT_THEORY = SGP/SGP4

EPOCH          = 2026-02-04T19:38:50.197920
MEAN_MOTION    = 14.88403653
ECCENTRICITY   = .0003875
INCLINATION    = 97.7993
RA_OF_ASC_NODE = 36.5938
ARG_OF_PERICENTER = 170.2650
MEAN_ANOMALY   = 189.8643

EPHEMERIS_TYPE = 0
CLASSIFICATION_TYPE = U
NORAD_CAT_ID   = 67385
ELEMENT_SET_NO = 999
REV_AT_EPOCH   = 360
BSTAR          = .84105E-3
MEAN_MOTION_DOT = .7748E-4
MEAN_MOTION_DDOT = 0

CCSDS_OMM_VERS = 2.0
CREATION_DATE  = 
ORIGINATOR     = 

OBJECT_NAME    = TWILIGHT Z
OBJECT_ID      = 2026-004Z
CENTER_NAME    = EARTH
REF_FRAME      = TEME
TIME_SYSTEM    = UTC
MEAN_ELEMENT_THEORY = SGP/SGP4

EPOCH          = 2026-02-04T19:36:56.468736
MEAN_MOTION    = 14.88353562
ECCENTRICITY   = .0002653
INCLINATION    = 97.7973
RA_OF_ASC_NODE = 36.5926
ARG_OF_PERICENTER = 167.5460
MEAN_ANOMALY   = 192.5822

EPHEMERIS_TYPE = 0
CLASSIFICATION_TYPE = U
NORAD_CAT_ID   = 67386
ELEMENT_SET_NO = 999
REV_AT_EPOCH   = 360
BSTAR          = .5378E-3
MEAN_MOTION_DOT = .4926E-4
MEAN_MOTION_DDOT = 0

CCSDS_OMM_VERS = 2.0
CREATION_DATE  = 
ORIGINATOR     = 

OBJECT_NAME    = TWILIGHT AA
OBJECT_ID      = 2026-004AA
CENTER_NAME    = EARTH
REF_FRAME      = TEME
TIME_SYSTEM    = UTC
MEAN_ELEMENT_THEORY = SGP/SGP4

EPOCH          = 2026-02-04T19:30:38.668320
MEAN_MOTION    = 14.88709520
ECCENTRICITY   = .0003934
INCLINATION    = 97.8022
RA_OF_ASC_NODE = 36.6062
ARG_OF_PERICENTER = 141.9729
MEAN_ANOMALY   = 218.1766

EPHEMERIS_TYPE = 0
CLASSIFICATION_TYPE = U
NORAD_CAT_ID   = 67387
ELEMENT_SET_NO = 999
REV_AT_EPOCH   = 360
BSTAR          = .81088E-3
MEAN_MOTION_DOT = .7525E-4
MEAN_MOTION_DDOT = 0

CCSDS_OMM_VERS = 2.0
CREATION_DATE  = 
ORIGINATOR     = 

OBJECT_NAME    = TWILIGHT AB
OBJECT_ID      = 2026-004AB
CENTER_NAME    = EARTH
REF_FRAME      = TEME
TIME_SYSTEM    = UTC
MEAN_ELEMENT_THEORY = SGP/SGP4

EPOCH          = 2026-02-04T19:27:54.691488
MEAN_MOTION    = 14.88808707
ECCENTRICITY   = .0003498
INCLINATION    = 97.8011
RA_OF_ASC_NODE = 36.6069
ARG_OF_PERICENTER = 132.0185
MEAN_ANOMALY   = 228.1330

EPHEMERIS_TYPE = 0
CLASSIFICATION_TYPE = U
NORAD_CAT_ID   = 67388
ELEMENT_SET_NO = 999
REV_AT_EPOCH   = 360
BSTAR          = .78431E-3
MEAN_MOTION_DOT = .7294E-4
MEAN_MOTION_DDOT = 0

CCSDS_OMM_VERS = 2.0
CREATION_DATE  = 
ORIGINATOR     = 

OBJECT_NAME    = TWILIGHT AC
OBJECT_ID      = 2026-004AC
CENTER_NAME    = EARTH
REF_FRAME      = TEME
TIME_SYSTEM    = UTC
MEAN_ELEMENT_THEORY = SGP/SGP4

EPOCH          = 2026-02-04T19:44:51.381888
MEAN_MOTION    = 15.17143746
ECCENTRICITY   = .0005262
INCLINATION    = 97.4569
RA_OF_ASC_NODE = 36.8002
ARG_OF_PERICENTER = 84.1102
MEAN_ANOMALY   = 276.0731

EPHEMERIS_TYPE = 0
CLASSIFICATION_TYPE = U
NORAD_CAT_ID   = 67389
ELEMENT_SET_NO = 999
REV_AT_EPOCH   = 367
BSTAR          = .33807E-3
MEAN_MOTION_DOT = .6644E-4
MEAN_MOTION_DDOT = 0

CCSDS_OMM_VERS = 2.0
CREATION_DATE  = 
ORIGINATOR     = 

OBJECT_NAME    = CONNECTA IOT-16
OBJECT_ID      = 2026-004AD
CENTER_NAME    = EARTH
REF_FRAME      = TEME
TIME_SYSTEM    = UTC
MEAN_ELEMENT_THEORY = SGP/SGP4

EPOCH          = 2026-02-04T19:44:43.046016
MEAN_MOTION    = 15.16992516
ECCENTRICITY   = .0005458
INCLINATION    = 97.4569
RA_OF_ASC_NODE = 36.8018
ARG_OF_PERICENTER = 81.8712
MEAN_ANOMALY   = 278.3140

EPHEMERIS_TYPE = 0
CLASSIFICATION_TYPE = U
NORAD_CAT_ID   = 67390
ELEMENT_SET_NO = 999
REV_AT_EPOCH   = 367
BSTAR          = .35277E-3
MEAN_MOTION_DOT = .6906E-4
MEAN_MOTION_DDOT = 0

CCSDS_OMM_VERS = 2.0
CREATION_DATE  = 
ORIGINATOR     = 

OBJECT_NAME    = FLAMINGO-1
OBJECT_ID      = 2026-004AE
CENTER_NAME    = EARTH
REF_FRAME      = TEME
TIME_SYSTEM    = UTC
MEAN_ELEMENT_THEORY = SGP/SGP4

EPOCH          = 2026-02-04T18:05:08.994912
MEAN_MOTION    = 15.17256826
ECCENTRICITY   = .0006713
INCLINATION    = 97.4520
RA_OF_ASC_NODE = 36.7246
ARG_OF_PERICENTER = 75.0592
MEAN_ANOMALY   = 285.1384

EPHEMERIS_TYPE = 0
CLASSIFICATION_TYPE = U
NORAD_CAT_ID   = 67391
ELEMENT_SET_NO = 999
REV_AT_EPOCH   = 366
BSTAR          = .32172E-3
MEAN_MOTION_DOT = .6341E-4
MEAN_MOTION_DDOT = 0

CCSDS_OMM_VERS = 2.0
CREATION_DATE  = 
ORIGINATOR     = 

OBJECT_NAME    = TWILIGHT AF
OBJECT_ID      = 2026-004AF
CENTER_NAME    = EARTH
REF_FRAME      = TEME
TIME_SYSTEM    = UTC
MEAN_ELEMENT_THEORY = SGP/SGP4

EPOCH          = 2026-02-04T19:30:28.745280
MEAN_MOTION    = 15.18078405
ECCENTRICITY   = .0007508
INCLINATION    = 97.4414
RA_OF_ASC_NODE = 36.7476
ARG_OF_PERICENTER = 75.5929
MEAN_ANOMALY   = 284.6138

EPHEMERIS_TYPE = 0
CLASSIFICATION_TYPE = U
NORAD_CAT_ID   = 67392
ELEMENT_SET_NO = 999
REV_AT_EPOCH   = 367
BSTAR          = .24559E-2
MEAN_MOTION_DOT = .50317E-3
MEAN_MOTION_DDOT = 0

CCSDS_OMM_VERS = 2.0
CREATION_DATE  = 
ORIGINATOR     = 

OBJECT_NAME    = TWILIGHT AG
OBJECT_ID      = 2026-004AG
CENTER_NAME    = EARTH
REF_FRAME      = TEME
TIME_SYSTEM    = UTC
MEAN_ELEMENT_THEORY = SGP/SGP4

EPOCH          = 2026-02-04T06:50:03.453216
MEAN_MOTION    = 15.17976612
ECCENTRICITY   = .00075267
INCLINATION    = 97.4562
RA_OF_ASC_NODE = 36.3047
ARG_OF_PERICENTER = 83.2673
MEAN_ANOMALY   = 276.9418

EPHEMERIS_TYPE = 0
CLASSIFICATION_TYPE = U
NORAD_CAT_ID   = 67393
ELEMENT_SET_NO = 999
REV_AT_EPOCH   = 359
BSTAR          = .36656505E-3
MEAN_MOTION_DOT = .7388E-4
MEAN_MOTION_DDOT = 0

